{"type": "FeatureCollection", "features": [ {"type": "Feature", "properties": {"norad_id": 34570, "name": "COSMOS 2251 DEB", "group": "cosmos-2251-debris", "lat": -73.85698524235032, "lon": 124.40782047624307, "alt_km": 1034.7160363403136, "timestamp": "2025-12-11T08:58:27.519961+00:00", "meta": {"OBJECT_NAME": "COSMOS 2251 DEB", "OBJECT_ID": "1993-036VG", "EPOCH": "2025-12-10T10:15:47.270880", "MEAN_MOTION": 13.99813899, "ECCENTRICITY": 0.01902081, "INCLINATION": 73.9575, "RA_OF_ASC_NODE": 222.3032, "ARG_OF_PERICENTER": 105.3156, "MEAN_ANOMALY": 75.4929, "EPHEMERIS_TYPE": 0, "CLASSIFICATION_TYPE": "U", "NORAD_CAT_ID": 34570, "ELEMENT_SET_NO": 999, "REV_AT_EPOCH": 85568, "BSTAR": 0.00064940557, "MEAN_MOTION_DOT": 1.09e-05, "MEAN_MOTION_DDOT": 0}, "tle": {"line1": "1 34570U 93036VG  25344.42763045  .00001090  00000+0  64941-3 0  9995", "line2": "2 34570  73.9575 222.3032 0190208 105.3156  75.4929 13.99813899855680"}}, "geometry": {"type": "Point", "coordinates": [124.40782047624307, -73.85698524235032]}}, {"type": "Feature", "properties": {"norad_id": 34571, "name": "COSMOS 2251 DEB", "group": "cosmos-2251-debris", "lat": -54.4216596751674, "lon": 28.57615491502231, "alt_km": 691.2067403332358, "timestamp": "2025-12-11T08:58:27.519971+00:00", "meta": {"OBJECT_NAME": "COSMOS 2251 DEB", "OBJECT_ID": "1993-036VH", "EPOCH": "2025-12-09T06:09:38.106720", "MEAN_MOTION": 14.48721172, "ECCENTRICITY": 0.0066557, "INCLINATION": 74.0386, "RA_OF_ASC_NODE": 188.9585, "ARG_OF_PERICENTER": 224.7562, "MEAN_ANOMALY": 134.8218, "EPHEMERIS_TYPE": 0, "CLASSIFICATION_TYPE": "U", "NORAD_CAT_ID": 34571, "ELEMENT_SET_NO": 999, "REV_AT_EPOCH": 87243, "BSTAR": 0.0025604, "MEAN_MOTION_DOT": 9.914e-05, "MEAN_MOTION_DDOT": 0}, "tle": {"line1": "1 34571U 93036VH  25343.25669105  .00009914  00000+0  25604-2 0  9993", "line2": "2 34571  74.0386 188.9585 0066557 224.7562 134.8218 14.48721172872439"}}, "geometry": {"type": "Point", "coordinates": [28.57615491502231, -54.4216596751674]}}, {"type": "Feature", "properties": {"norad_id": 34572, "name": "COSMOS 2251 DEB", "group": "cosmos-2251-debris", "lat": 73.66828038446737, "lon": -140.0246144652518, "alt_km": 724.8417918766972, "timestamp": "2025-12-11T08:58:27.519982+00:00", "meta": {"OBJECT_NAME": "COSMOS 2251 DEB", "OBJECT_ID": "1993-036VJ", "EPOCH": "2025-12-10T09:40:05.680992", "MEAN_MOTION": 14.49931847, "ECCENTRICITY": 0.00631641, "INCLINATION": 74.011, "RA_OF_ASC_NODE": 119.902, "ARG_OF_PERICENTER": 194.0511, "MEAN_ANOMALY": 233.1496, "EPHEMERIS_TYPE": 0, "CLASSIFICATION_TYPE": "U", "NORAD_CAT_ID": 34572, "ELEMENT_SET_NO": 999, "REV_AT_EPOCH": 87344, "BSTAR": 0.0046719563, "MEAN_MOTION_DOT": 0.00018558, "MEAN_MOTION_DDOT": 0}, "tle": {"line1": "1 34572U 93036VJ  25344.40284353  .00018558  00000+0  46720-2 0  9996", "line2": "2 34572  74.0110 119.9020 0063164 194.0511 233.1496 14.49931847873443"}}, "geometry": {"type": "Point", "coordinates": [-140.0246144652518, 73.66828038446737]}}, {"type": "Feature", "properties": {"norad_id": 34574, "name": "COSMOS 2251 DEB", "group": "cosmos-2251-debris", "lat": -56.67110078852966, "lon": -108.47633709825169, "alt_km": 712.6489378855231, "timestamp": "2025-12-11T08:58:27.519992+00:00", "meta": {"OBJECT_NAME": "COSMOS 2251 DEB", "OBJECT_ID": "1993-036VL", "EPOCH": "2025-12-10T10:43:39.407232", "MEAN_MOTION": 14.70563466, "ECCENTRICITY": 0.00668665, "INCLINATION": 74.069, "RA_OF_ASC_NODE": 47.5738, "ARG_OF_PERICENTER": 69.3099, "MEAN_ANOMALY": 305.6088, "EPHEMERIS_TYPE": 0, "CLASSIFICATION_TYPE": "U", "NORAD_CAT_ID": 34574, "ELEMENT_SET_NO": 999, "REV_AT_EPOCH": 88745, "BSTAR": 0.0013396408, "MEAN_MOTION_DOT": 8.403e-05, "MEAN_MOTION_DDOT": 0}, "tle": {"line1": "1 34574U 93036VL  25344.44698388  .00008403  00000+0  13396-2 0  9990", "line2": "2 34574  74.0690  47.5738 0066866  69.3099 305.6088 14.70563466887457"}}, "geometry": {"type": "Point", "coordinates": [-108.47633709825169, -56.67110078852966]}}, {"type": "Feature", "properties": {"norad_id": 34576, "name": "COSMOS 2251 DEB", "group": "cosmos-2251-debris", "lat": -68.66481816913485, "lon": 93.64756487180345, "alt_km": 709.340839599613, "timestamp": "2025-12-11T08:58:27.520003+00:00", "meta": {"OBJECT_NAME": "COSMOS 2251 DEB", "OBJECT_ID": "1993-036VN", "EPOCH": "2025-12-10T20:48:54.725184", "MEAN_MOTION": 14.55400775, "ECCENTRICITY": 0.0008018, "INCLINATION": 74.0338, "RA_OF_ASC_NODE": 141.7437, "ARG_OF_PERICENTER": 276.7745, "MEAN_ANOMALY": 234.197, "EPHEMERIS_TYPE": 0, "CLASSIFICATION_TYPE": "U", "NORAD_CAT_ID": 34576, "ELEMENT_SET_NO": 999, "REV_AT_EPOCH": 88439, "BSTAR": 0.0013283, "MEAN_MOTION_DOT": 5.748e-05, "MEAN_MOTION_DDOT": 0}, "tle": {"line1": "1 34576U 93036VN  25344.86730006  .00005748  00000+0  13283-2 0  9996", "line2": "2 34576  74.0338 141.7437 0008018 276.7745 234.1970 14.55400775884390"}}, "geometry": {"type": "Point", "coordinates": [93.64756487180345, -68.66481816913485]}}, {"type": "Feature", "properties": {"norad_id": 34579, "name": "COSMOS 2251 DEB", "group": "cosmos-2251-debris", "lat": -11.482314410803564, "lon": 49.7658748241652, "alt_km": 749.5248869950938, "timestamp": "2025-12-11T08:58:27.520013+00:00", "meta": {"OBJECT_NAME": "COSMOS 2251 DEB", "OBJECT_ID": "1993-036VR", "EPOCH": "2025-12-10T21:02:12.659424", "MEAN_MOTION": 14.45299672, "ECCENTRICITY": 0.0027575, "INCLINATION": 74.0529, "RA_OF_ASC_NODE": 227.3618, "ARG_OF_PERICENTER": 296.2863, "MEAN_ANOMALY": 188.9226, "EPHEMERIS_TYPE": 0, "CLASSIFICATION_TYPE": "U", "NORAD_CAT_ID": 34579, "ELEMENT_SET_NO": 999, "REV_AT_EPOCH": 88147, "BSTAR": 0.00061038, "MEAN_MOTION_DOT": 2.127e-05, "MEAN_MOTION_DDOT": 0}, "tle": {"line1": "1 34579U 93036VR  25344.87653541  .00002127  00000+0  61038-3 0  9998", "line2": "2 34579  74.0529 227.3618 0027575 296.2863 188.9226 14.45299672881471"}}, "geometry": {"type": "Point", "coordinates": [49.7658748241652, -11.482314410803564]}}, {"type": "Feature", "properties": {"norad_id": 34582, "name": "COSMOS 2251 DEB", "group": "cosmos-2251-debris", "lat": 37.559572822061696, "lon": 82.18698318737523, "alt_km": 758.8643041301402, "timestamp": "2025-12-11T08:58:27.520023+00:00", "meta": {"OBJECT_NAME": "COSMOS 2251 DEB", "OBJECT_ID": "1993-036VU", "EPOCH": "2025-12-11T05:00:06.039072", "MEAN_MOTION": 14.43310408, "ECCENTRICITY": 0.0047776, "INCLINATION": 74.0199, "RA_OF_ASC_NODE": 275.2246, "ARG_OF_PERICENTER": 25.6906, "MEAN_ANOMALY": 334.6608, "EPHEMERIS_TYPE": 0, "CLASSIFICATION_TYPE": "U", "NORAD_CAT_ID": 34582, "ELEMENT_SET_NO": 999, "REV_AT_EPOCH": 87925, "BSTAR": 0.0011878, "MEAN_MOTION_DOT": 4.034e-05, "MEAN_MOTION_DDOT": 0}, "tle": {"line1": "1 34582U 93036VU  25345.20840323  .00004034  00000+0  11878-2 0  9991", "line2": "2 34582  74.0199 275.2246 0047776  25.6906 334.6608 14.43310408879250"}}, "geometry": {"type": "Point", "coordinates": [82.18698318737523, 37.559572822061696]}}, {"type": "Feature", "properties": {"norad_id": 34588, "name": "COSMOS 2251 DEB", "group": "cosmos-2251-debris", "lat": -20.39277095351016, "lon": 96.89175189966944, "alt_km": 764.0064106560285, "timestamp": "2025-12-11T08:58:27.520034+00:00", "meta": {"OBJECT_NAME": "COSMOS 2251 DEB", "OBJECT_ID": "1993-036WA", "EPOCH": "2025-12-11T05:16:39.562176", "MEAN_MOTION": 14.42013893, "ECCENTRICITY": 0.0019149, "INCLINATION": 74.0438, "RA_OF_ASC_NODE": 271.0715, "ARG_OF_PERICENTER": 323.8937, "MEAN_ANOMALY": 158.159, "EPHEMERIS_TYPE": 0, "CLASSIFICATION_TYPE": "U", "NORAD_CAT_ID": 34588, "ELEMENT_SET_NO": 999, "REV_AT_EPOCH": 87928, "BSTAR": 0.00074115, "MEAN_MOTION_DOT": 2.412e-05, "MEAN_MOTION_DDOT": 0}, "tle": {"line1": "1 34588U 93036WA  25345.21990234  .00002412  00000+0  74115-3 0  9997", "line2": "2 34588  74.0438 271.0715 0019149 323.8937 158.1590 14.42013893879286"}}, "geometry": {"type": "Point", "coordinates": [96.89175189966944, -20.39277095351016]}}, {"type": "Feature", "properties": {"norad_id": 34589, "name": "COSMOS 2251 DEB", "group": "cosmos-2251-debris", "lat": -40.40252586188261, "lon": 44.15392602654034, "alt_km": 814.5060377055934, "timestamp": "2025-12-11T08:58:27.520044+00:00", "meta": {"OBJECT_NAME": "COSMOS 2251 DEB", "OBJECT_ID": "1993-036WB", "EPOCH": "2025-12-09T12:13:17.410656", "MEAN_MOTION": 13.8604857, "ECCENTRICITY": 0.02517935, "INCLINATION": 73.9254, "RA_OF_ASC_NODE": 61.5361, "ARG_OF_PERICENTER": 5.5277, "MEAN_ANOMALY": 13.2328, "EPHEMERIS_TYPE": 0, "CLASSIFICATION_TYPE": "U", "NORAD_CAT_ID": 34589, "ELEMENT_SET_NO": 999, "REV_AT_EPOCH": 84667, "BSTAR": 0.00037001793, "MEAN_MOTION_DOT": 5.22e-06, "MEAN_MOTION_DDOT": 0}, "tle": {"line1": "1 34589U 93036WB  25343.50922929  .00000522  00000+0  37002-3 0  9998", "line2": "2 34589  73.9254  61.5361 0251793   5.5277  13.2328 13.86048570846678"}}, "geometry": {"type": "Point", "coordinates": [44.15392602654034, -40.40252586188261]}}, {"type": "Feature", "properties": {"norad_id": 34590, "name": "COSMOS 2251 DEB", "group": "cosmos-2251-debris", "lat": -32.81787620257968, "lon": -45.497571855651024, "alt_km": 746.0998358797351, "timestamp": "2025-12-11T08:58:27.520055+00:00", "meta": {"OBJECT_NAME": "COSMOS 2251 DEB", "OBJECT_ID": "1993-036WC", "EPOCH": "2025-12-10T08:56:51.819072", "MEAN_MOTION": 14.54821545, "ECCENTRICITY": 0.00679607, "INCLINATION": 74.0436, "RA_OF_ASC_NODE": 327.0281, "ARG_OF_PERICENTER": 97.3317, "MEAN_ANOMALY": 28.045, "EPHEMERIS_TYPE": 0, "CLASSIFICATION_TYPE": "U", "NORAD_CAT_ID": 34590, "ELEMENT_SET_NO": 999, "REV_AT_EPOCH": 89086, "BSTAR": 0.00020824957, "MEAN_MOTION_DOT": 8.92e-06, "MEAN_MOTION_DDOT": 0}, "tle": {"line1": "1 34590U 93036WC  25344.37282198  .00000892  00000+0  20825-3 0  9998", "line2": "2 34590  74.0436 327.0281 0067960  97.3317  28.0450 14.54821545890867"}}, "geometry": {"type": "Point", "coordinates": [-45.497571855651024, -32.81787620257968]}}]}